GECAM-A                 
1 47234U 20094A   26058.13989985  .00002379  00000+0  17329-3 0  9993
2 47234  28.9961  20.3521 0010700 243.6219 116.3280 15.00334340285149
STARLINK-5905           
1 55986U 23042A   26068.93839352  .00000074  00000+0  20544-4 0  9997
2 55986  43.0043  55.1176 0001351 275.5762  84.4926 15.02535341163763
